{
  "near_earth_objects": [
    {
      "id": "3007950",
      "neo_reference_id": "3007950",
      "name": "(1995 LA)",
      "designation": "1995 LA",
      "nasa_jpl_url": "http://ssd.jpl.nasa.gov/sbdb.cgi?sstr=3007950",
      "absolute_magnitude_h": 24.0,
      "estimated_diameter": {
        "kilometers": {
          "estimated_diameter_min": 0.0421264611,
          "estimated_diameter_max": 0.0941976306
        },
        "meters": {
          "estimated_diameter_min": 42.1264610556,
          "estimated_diameter_max": 94.1976305719
        },
        "miles": {
          "estimated_diameter_min": 0.0261761612,
          "estimated_diameter_max": 0.0585316759
        },
        "feet": {
          "estimated_diameter_min": 138.2101784897,
          "estimated_diameter_max": 309.0473542854
        }
      },
      "is_potentially_hazardous_asteroid": false,
      "close_approach_data": [
        {
          "close_approach_date": "1995-06-04",
          "close_approach_date_full": "1995-Jun-04 18:30",
          "epoch_date_close_approach": 802290600000,
          "relative_velocity": {
            "kilometers_per_second": "8.7108690016",
            "kilometers_per_hour": "31359.12840592",
            "miles_per_hour": "19485.3428697785"
          },
          "miss_distance": {
            "astronomical": "0.0219564421",
            "lunar": "8.5410559769",
            "kilometers": "3284636.970938327",
            "miles": "2040978.7722978326"
          },
          "orbiting_body": "Earth"
        }
      ],
      "orbital_data": {
        "orbit_id": "12",
        "orbit_determination_date": "2017-04-06 09:18:09",
        "first_observation_date": "1995-06-01",
        "last_observation_date": "1995-06-08",
        "data_arc_in_days": 7,
        "observations_used": 52,
        "orbit_uncertainty": "7",
        "minimum_orbit_intersection": ".0148007",
        "jupiter_tisserand_invariant": "3.529",
        "epoch_osculation": "2459000.5",
        "eccentricity": ".5217560870187504",
        "semi_major_axis": "2.122420410138937",
        "inclination": "8.704882461603745",
        "ascending_node_longitude": "247.6235861507999",
        "orbital_period": "1129.394183944578",
        "perihelion_distance": "1.015034641936114",
        "perihelion_argument": "17.6421578008063",
        "aphelion_distance": "3.229806178341759",
        "perihelion_time": "2458928.660783013178",
        "mean_anomaly": "22.89910686889566",
        "mean_motion": ".3187549618350665",
        "equinox": "J2000",
        "orbit_class": {
          "orbit_class_type": "APO",
          "orbit_class_description": "Near-Earth asteroid orbits which cross the Earth’s orbit similar to that of 1862 Apollo",
          "orbit_class_range": "a (semi-major axis) > 1.0 AU; q (perihelion) < 1.017 AU"
        }
      },
      "is_sentry_object": false
    },
    {
      "id": "3092139",
      "neo_reference_id": "3092139",
      "name": "(1995 NA)",
      "designation": "1995 NA",
      "nasa_jpl_url": "http://ssd.jpl.nasa.gov/sbdb.cgi?sstr=3092139",
      "absolute_magnitude_h": 23.2,
      "estimated_diameter": {
        "kilometers": {
          "estimated_diameter_min": 0.0608912622,
          "estimated_diameter_max": 0.1361570015
        },
        "meters": {
          "estimated_diameter_min": 60.8912622106,
          "estimated_diameter_max": 136.1570015386
        },
        "miles": {
          "estimated_diameter_min": 0.0378360645,
          "estimated_diameter_max": 0.0846040122
        },
        "feet": {
          "estimated_diameter_min": 199.7744887109,
          "estimated_diameter_max": 446.7093369279
        }
      },
      "is_potentially_hazardous_asteroid": false,
      "close_approach_data": [
        {
          "close_approach_date": "1995-07-10",
          "close_approach_date_full": "1995-Jul-10 17:03",
          "epoch_date_close_approach": 805395780000,
          "relative_velocity": {
            "kilometers_per_second": "8.6324542959",
            "kilometers_per_hour": "31076.8354652734",
            "miles_per_hour": "19309.9370145195"
          },
          "miss_distance": {
            "astronomical": "0.0703771721",
            "lunar": "27.3767199469",
            "kilometers": "10528275.042783427",
            "miles": "6541966.7565562126"
          },
          "orbiting_body": "Earth"
        }
      ],
      "orbital_data": {
        "orbit_id": "13",
        "orbit_determination_date": "2017-04-06 09:18:09",
        "first_observation_date": "1995-07-05",
        "last_observation_date": "1995-07-06",
        "data_arc_in_days": 1,
        "observations_used": 8,
        "orbit_uncertainty": "9",
        "minimum_orbit_intersection": ".0508804",
        "jupiter_tisserand_invariant": "4.110",
        "epoch_osculation": "2449904.5",
        "eccentricity": ".3902395371753264",
        "semi_major_axis": "1.685104025523935",
        "inclination": "12.78566454037149",
        "ascending_node_longitude": "276.2101157328225",
        "orbital_period": "798.9847699638399",
        "perihelion_distance": "1.027509810511195",
        "perihelion_argument": "33.71767762979477",
        "aphelion_distance": "2.342698240536675",
        "perihelion_time": "2449931.293002066728",
        "mean_anomaly": "347.9278290317616",
        "mean_motion": ".4505717925215179",
        "equinox": "J2000",
        "orbit_class": {
          "orbit_class_type": "AMO",
          "orbit_class_description": "Near-Earth asteroid orbits similar to that of 1221 Amor",
          "orbit_class_range": "1.017 AU < q (perihelion) < 1.3 AU"
        }
      },
      "is_sentry_object": false
    },
    {
      "id": "3092141",
      "neo_reference_id": "3092141",
      "name": "(1995 SC1)",
      "designation": "1995 SC1",
      "nasa_jpl_url": "http://ssd.jpl.nasa.gov/sbdb.cgi?sstr=3092141",
      "absolute_magnitude_h": 22.7,
      "estimated_diameter": {
        "kilometers": {
          "estimated_diameter_min": 0.0766575574,
          "estimated_diameter_max": 0.1714115092
        },
        "meters": {
          "estimated_diameter_min": 76.6575573531,
          "estimated_diameter_max": 171.4115092306
        },
        "miles": {
          "estimated_diameter_min": 0.0476327831,
          "estimated_diameter_max": 0.1065101409
        },
        "feet": {
          "estimated_diameter_min": 251.5011804664,
          "estimated_diameter_max": 562.3737359442
        }
      },
      "is_potentially_hazardous_asteroid": false,
      "close_approach_data": [
        {
          "close_approach_date": "1995-09-07",
          "close_approach_date_full": "1995-Sep-07 22:01",
          "epoch_date_close_approach": 810511260000,
          "relative_velocity": {
            "kilometers_per_second": "6.2557520263",
            "kilometers_per_hour": "22520.707294573",
            "miles_per_hour": "13993.491707564"
          },
          "miss_distance": {
            "astronomical": "0.1159158802",
            "lunar": "45.0912773978",
            "kilometers": "17340768.777095174",
            "miles": "10775054.0721904412"
          },
          "orbiting_body": "Earth"
        }
      ],
      "orbital_data": {
        "orbit_id": "16",
        "orbit_determination_date": "2017-04-06 09:18:09",
        "first_observation_date": "1995-09-23",
        "last_observation_date": "1995-10-16",
        "data_arc_in_days": 23,
        "observations_used": 15,
        "orbit_uncertainty": "7",
        "minimum_orbit_intersection": ".110067",
        "jupiter_tisserand_invariant": "3.571",
        "epoch_osculation": "2459000.5",
        "eccentricity": ".4751485789579977",
        "semi_major_axis": "2.118738099410859",
        "inclination": "6.826483632331095",
        "ascending_node_longitude": "357.840227604797",
        "orbital_period": "1126.456281573454",
        "perihelion_distance": "1.112022702291621",
        "perihelion_argument": "341.5319219166341",
        "aphelion_distance": "3.125453496530098",
        "perihelion_time": "2458980.550076299867",
        "mean_anomaly": "6.375722386683323",
        "mean_motion": ".3195863043145763",
        "equinox": "J2000",
        "orbit_class": {
          "orbit_class_type": "AMO",
          "orbit_class_description": "Near-Earth asteroid orbits similar to that of 1221 Amor",
          "orbit_class_range": "1.017 AU < q (perihelion) < 1.3 AU"
        }
      },
      "is_sentry_object": false
    }
  ]
}